ONEWEB-0116             
1 48046U 21025E   26197.75970638  .00000064  00000+0  14078-3 0  9994
2 48046  87.8987 314.3346 0001844 102.9790 257.1545 13.13470475257536
ONEWEB-0150             
1 48047U 21025F   26197.35511981 -.00000327  00000+0 -93073-3 0  9999
2 48047  87.8989 314.4122 0001903  93.7494 266.3853 13.13469686257374
ONEWEB-0107             
1 48048U 21025G   26197.35681009 -.00000261  00000+0 -74913-3 0  9998
2 48048  87.8988 314.4081 0002125  97.9425 262.1945 13.13472575257350
ONEWEB-0101             
1 48049U 21025H   26197.31957110  .00000365  00000+0  96326-3 0  9999
2 48049  87.8977 314.4283 0002086 102.5932 257.5430 13.13471034257328
ONEWEB-0113             
1 48050U 21025J   26197.33456527  .00000041  00000+0  75518-4 0  9991
2 48050  87.8984 314.3326 0001865  95.5963 264.5379 13.13890687257435
ONEWEB-0112             
1 48051U 21025K   26197.59042132 -.00001208  00000+0 -33419-2 0  9993
2 48051  87.8988 314.3600 0002231  97.9125 262.2258 13.13475468257458
ONEWEB-0156             
1 48052U 21025L   26197.75123172 -.00000175  00000+0 -51307-3 0  9995
2 48052  87.8987 314.3376 0002005  96.1663 263.9694 13.13472827257453
ONEWEB-0161             
1 48053U 21025M   26197.72584663  .00000112  00000+0  27057-3 0  9993
2 48053  87.8987 314.3430 0002065  96.5072 263.6292 13.13470457257389
ONEWEB-0158             
1 48054U 21025N   26197.76141019  .00000136  00000+0  33867-3 0  9994
2 48054  87.8985 314.3341 0001846 108.7972 251.3357 13.13471729257514
ONEWEB-0157             
1 48055U 21025P   26197.32972234  .00000175  00000+0  44318-3 0  9994
2 48055  87.8984 314.4247 0002310  96.3095 263.8297 13.13471036257393
ONEWEB-0162             
1 48056U 21025Q   26197.76296531  .00000138  00000+0  34412-3 0  9995
2 48056  87.8981 314.3390 0001887  95.5798 264.5547 13.13469534257428
ONEWEB-0155             
1 48057U 21025R   26197.76987051  .00000293  00000+0  76799-3 0  9996
2 48057  87.8982 314.3341 0002033  97.6696 262.4664 13.13473866257565
ONEWEB-0149             
1 48058U 21025S   26197.33480941 -.00000021  00000+0 -93077-4 0  9996
2 48058  87.8987 314.4245 0001856  93.7038 266.4303 13.13469319257319
ONEWEB-0148             
1 48059U 21025T   26197.75463007 -.00000056  00000+0 -18752-3 0  9991
2 48059  87.8978 314.3463 0001905  82.8262 277.3084 13.13470117257498
ONEWEB-0160             
1 48060U 21025U   26197.77155647  .00000285  00000+0  74551-3 0  9994
2 48060  87.8977 314.3390 0001457 118.7387 241.3889 13.13469433257445
ONEWEB-0163             
1 48061U 21025V   26197.60396770  .00000130  00000+0  32227-3 0  9994
2 48061  87.8985 314.3691 0002238  97.2616 262.8768 13.13470468257548
