{"fetched_at":"2026-07-17T06:37:51.309Z","source":"https://celestrak.org/NORAD/elements/gp.php?GROUP=oneweb&FORMAT=JSON","constellation":"oneweb","records":[{"OBJECT_NAME":"ONEWEB-0116","OBJECT_ID":"2021-025E","EPOCH":"2026-07-16T18:13:58.631232","CLASSIFICATION_TYPE":"U","MEAN_MOTION":13.13470475,"ECCENTRICITY":0.0001844,"INCLINATION":87.8987,"RA_OF_ASC_NODE":314.3346,"ARG_OF_PERICENTER":102.979,"MEAN_ANOMALY":257.1545,"EPHEMERIS_TYPE":0,"NORAD_CAT_ID":48046,"ELEMENT_SET_NO":999,"REV_AT_EPOCH":25753,"BSTAR":0.00014078,"MEAN_MOTION_DOT":6.4e-7,"MEAN_MOTION_DDOT":0},{"OBJECT_NAME":"ONEWEB-0150","OBJECT_ID":"2021-025F","EPOCH":"2026-07-16T08:31:22.351584","CLASSIFICATION_TYPE":"U","MEAN_MOTION":13.13469686,"ECCENTRICITY":0.0001903,"INCLINATION":87.8989,"RA_OF_ASC_NODE":314.4122,"ARG_OF_PERICENTER":93.7494,"MEAN_ANOMALY":266.3853,"EPHEMERIS_TYPE":0,"NORAD_CAT_ID":48047,"ELEMENT_SET_NO":999,"REV_AT_EPOCH":25737,"BSTAR":-0.00093073,"MEAN_MOTION_DOT":-0.00000327,"MEAN_MOTION_DDOT":0},{"OBJECT_NAME":"ONEWEB-0107","OBJECT_ID":"2021-025G","EPOCH":"2026-07-16T08:33:48.391776","CLASSIFICATION_TYPE":"U","MEAN_MOTION":13.13472575,"ECCENTRICITY":0.0002125,"INCLINATION":87.8988,"RA_OF_ASC_NODE":314.4081,"ARG_OF_PERICENTER":97.9425,"MEAN_ANOMALY":262.1945,"EPHEMERIS_TYPE":0,"NORAD_CAT_ID":48048,"ELEMENT_SET_NO":999,"REV_AT_EPOCH":25735,"BSTAR":-0.00074913,"MEAN_MOTION_DOT":-0.00000261,"MEAN_MOTION_DDOT":0},{"OBJECT_NAME":"ONEWEB-0101","OBJECT_ID":"2021-025H","EPOCH":"2026-07-16T07:40:10.943040","CLASSIFICATION_TYPE":"U","MEAN_MOTION":13.13471034,"ECCENTRICITY":0.0002086,"INCLINATION":87.8977,"RA_OF_ASC_NODE":314.4283,"ARG_OF_PERICENTER":102.5932,"MEAN_ANOMALY":257.543,"EPHEMERIS_TYPE":0,"NORAD_CAT_ID":48049,"ELEMENT_SET_NO":999,"REV_AT_EPOCH":25732,"BSTAR":0.00096326,"MEAN_MOTION_DOT":0.00000365,"MEAN_MOTION_DDOT":0},{"OBJECT_NAME":"ONEWEB-0113","OBJECT_ID":"2021-025J","EPOCH":"2026-07-16T08:01:46.439328","CLASSIFICATION_TYPE":"U","MEAN_MOTION":13.13890687,"ECCENTRICITY":0.0001865,"INCLINATION":87.8984,"RA_OF_ASC_NODE":314.3326,"ARG_OF_PERICENTER":95.5963,"MEAN_ANOMALY":264.5379,"EPHEMERIS_TYPE":0,"NORAD_CAT_ID":48050,"ELEMENT_SET_NO":999,"REV_AT_EPOCH":25743,"BSTAR":0.000075518,"MEAN_MOTION_DOT":4.1e-7,"MEAN_MOTION_DDOT":0},{"OBJECT_NAME":"ONEWEB-0112","OBJECT_ID":"2021-025K","EPOCH":"2026-07-16T14:10:12.402048","CLASSIFICATION_TYPE":"U","MEAN_MOTION":13.13475468,"ECCENTRICITY":0.0002231,"INCLINATION":87.8988,"RA_OF_ASC_NODE":314.36,"ARG_OF_PERICENTER":97.9125,"MEAN_ANOMALY":262.2258,"EPHEMERIS_TYPE":0,"NORAD_CAT_ID":48051,"ELEMENT_SET_NO":999,"REV_AT_EPOCH":25745,"BSTAR":-0.0033419,"MEAN_MOTION_DOT":-0.00001208,"MEAN_MOTION_DDOT":0},{"OBJECT_NAME":"ONEWEB-0156","OBJECT_ID":"2021-025L","EPOCH":"2026-07-16T18:01:46.420608","CLASSIFICATION_TYPE":"U","MEAN_MOTION":13.13472827,"ECCENTRICITY":0.0002005,"INCLINATION":87.8987,"RA_OF_ASC_NODE":314.3376,"ARG_OF_PERICENTER":96.1663,"MEAN_ANOMALY":263.9694,"EPHEMERIS_TYPE":0,"NORAD_CAT_ID":48052,"ELEMENT_SET_NO":999,"REV_AT_EPOCH":25745,"BSTAR":-0.00051307,"MEAN_MOTION_DOT":-0.00000175,"MEAN_MOTION_DDOT":0},{"OBJECT_NAME":"ONEWEB-0161","OBJECT_ID":"2021-025M","EPOCH":"2026-07-16T17:25:13.148832","CLASSIFICATION_TYPE":"U","MEAN_MOTION":13.13470457,"ECCENTRICITY":0.0002065,"INCLINATION":87.8987,"RA_OF_ASC_NODE":314.343,"ARG_OF_PERICENTER":96.5072,"MEAN_ANOMALY":263.6292,"EPHEMERIS_TYPE":0,"NORAD_CAT_ID":48053,"ELEMENT_SET_NO":999,"REV_AT_EPOCH":25738,"BSTAR":0.00027057,"MEAN_MOTION_DOT":0.00000112,"MEAN_MOTION_DDOT":0},{"OBJECT_NAME":"ONEWEB-0158","OBJECT_ID":"2021-025N","EPOCH":"2026-07-16T18:16:25.840416","CLASSIFICATION_TYPE":"U","MEAN_MOTION":13.13471729,"ECCENTRICITY":0.0001846,"INCLINATION":87.8985,"RA_OF_ASC_NODE":314.3341,"ARG_OF_PERICENTER":108.7972,"MEAN_ANOMALY":251.3357,"EPHEMERIS_TYPE":0,"NORAD_CAT_ID":48054,"ELEMENT_SET_NO":999,"REV_AT_EPOCH":25751,"BSTAR":0.00033867,"MEAN_MOTION_DOT":0.00000136,"MEAN_MOTION_DDOT":0},{"OBJECT_NAME":"ONEWEB-0157","OBJECT_ID":"2021-025P","EPOCH":"2026-07-16T07:54:48.010176","CLASSIFICATION_TYPE":"U","MEAN_MOTION":13.13471036,"ECCENTRICITY":0.000231,"INCLINATION":87.8984,"RA_OF_ASC_NODE":314.4247,"ARG_OF_PERICENTER":96.3095,"MEAN_ANOMALY":263.8297,"EPHEMERIS_TYPE":0,"NORAD_CAT_ID":48055,"ELEMENT_SET_NO":999,"REV_AT_EPOCH":25739,"BSTAR":0.00044318,"MEAN_MOTION_DOT":0.00000175,"MEAN_MOTION_DDOT":0},{"OBJECT_NAME":"ONEWEB-0162","OBJECT_ID":"2021-025Q","EPOCH":"2026-07-16T18:18:40.202784","CLASSIFICATION_TYPE":"U","MEAN_MOTION":13.13469534,"ECCENTRICITY":0.0001887,"INCLINATION":87.8981,"RA_OF_ASC_NODE":314.339,"ARG_OF_PERICENTER":95.5798,"MEAN_ANOMALY":264.5547,"EPHEMERIS_TYPE":0,"NORAD_CAT_ID":48056,"ELEMENT_SET_NO":999,"REV_AT_EPOCH":25742,"BSTAR":0.00034412,"MEAN_MOTION_DOT":0.00000138,"MEAN_MOTION_DDOT":0},{"OBJECT_NAME":"ONEWEB-0155","OBJECT_ID":"2021-025R","EPOCH":"2026-07-16T18:28:36.812064","CLASSIFICATION_TYPE":"U","MEAN_MOTION":13.13473866,"ECCENTRICITY":0.0002033,"INCLINATION":87.8982,"RA_OF_ASC_NODE":314.3341,"ARG_OF_PERICENTER":97.6696,"MEAN_ANOMALY":262.4664,"EPHEMERIS_TYPE":0,"NORAD_CAT_ID":48057,"ELEMENT_SET_NO":999,"REV_AT_EPOCH":25756,"BSTAR":0.00076799,"MEAN_MOTION_DOT":0.00000293,"MEAN_MOTION_DDOT":0},{"OBJECT_NAME":"ONEWEB-0149","OBJECT_ID":"2021-025S","EPOCH":"2026-07-16T08:02:07.533024","CLASSIFICATION_TYPE":"U","MEAN_MOTION":13.13469319,"ECCENTRICITY":0.0001856,"INCLINATION":87.8987,"RA_OF_ASC_NODE":314.4245,"ARG_OF_PERICENTER":93.7038,"MEAN_ANOMALY":266.4303,"EPHEMERIS_TYPE":0,"NORAD_CAT_ID":48058,"ELEMENT_SET_NO":999,"REV_AT_EPOCH":25731,"BSTAR":-0.000093077,"MEAN_MOTION_DOT":-2.1e-7,"MEAN_MOTION_DDOT":0},{"OBJECT_NAME":"ONEWEB-0148","OBJECT_ID":"2021-025T","EPOCH":"2026-07-16T18:06:40.038048","CLASSIFICATION_TYPE":"U","MEAN_MOTION":13.13470117,"ECCENTRICITY":0.0001905,"INCLINATION":87.8978,"RA_OF_ASC_NODE":314.3463,"ARG_OF_PERICENTER":82.8262,"MEAN_ANOMALY":277.3084,"EPHEMERIS_TYPE":0,"NORAD_CAT_ID":48059,"ELEMENT_SET_NO":999,"REV_AT_EPOCH":25749,"BSTAR":-0.00018752,"MEAN_MOTION_DOT":-5.6e-7,"MEAN_MOTION_DDOT":0},{"OBJECT_NAME":"ONEWEB-0160","OBJECT_ID":"2021-025U","EPOCH":"2026-07-16T18:31:02.479008","CLASSIFICATION_TYPE":"U","MEAN_MOTION":13.13469433,"ECCENTRICITY":0.0001457,"INCLINATION":87.8977,"RA_OF_ASC_NODE":314.339,"ARG_OF_PERICENTER":118.7387,"MEAN_ANOMALY":241.3889,"EPHEMERIS_TYPE":0,"NORAD_CAT_ID":48060,"ELEMENT_SET_NO":999,"REV_AT_EPOCH":25744,"BSTAR":0.00074551,"MEAN_MOTION_DOT":0.00000285,"MEAN_MOTION_DDOT":0},{"OBJECT_NAME":"ONEWEB-0163","OBJECT_ID":"2021-025V","EPOCH":"2026-07-16T14:29:42.809280","CLASSIFICATION_TYPE":"U","MEAN_MOTION":13.13470468,"ECCENTRICITY":0.0002238,"INCLINATION":87.8985,"RA_OF_ASC_NODE":314.3691,"ARG_OF_PERICENTER":97.2616,"MEAN_ANOMALY":262.8768,"EPHEMERIS_TYPE":0,"NORAD_CAT_ID":48061,"ELEMENT_SET_NO":999,"REV_AT_EPOCH":25754,"BSTAR":0.00032227,"MEAN_MOTION_DOT":0.0000013,"MEAN_MOTION_DDOT":0}]}
